NAVSTAR 48 (USA 151)    
1 26407U 00040A   26164.30270897  .00000084  00000+0  00000+0 0  9998
2 26407  54.8518 215.3166 0121064 302.4572  56.6362  2.00557597189874
NAVSTAR 51 (USA 166)    
1 27663U 03005A   26164.12019419  .00000085  00000+0  00000+0 0  9999
2 27663  54.8828 215.1306 0147934  53.0735 310.1871  2.00560725171232
NAVSTAR 56 (USA 180)    
1 28474U 04045A   26164.33708674 -.00000074  00000+0  00000+0 0  9995
2 28474  55.1372 325.0509 0169805 316.2769  61.7561  2.00555605158353
NAVSTAR 57 (USA 183)    
1 28874U 05038A   26164.36882667 -.00000028  00000+0  00000+0 0  9999
2 28874  54.8812 273.3317 0127831 296.1247  68.3770  2.00565849151768
INMARSAT 4-F2           
1 28899U 05044A   26164.57640691 -.00000254  00000+0  00000+0 0  9996
2 28899   5.0897  43.7030 0002811  36.3582 172.8276  1.00271325 75481
NAVSTAR 58 (USA 190)    
1 29486U 06042A   26164.14534884  .00000083  00000+0  00000+0 0  9996
2 29486  54.7102 151.4994 0106542  54.3122  47.2287  2.00570029144316
NAVSTAR 59 (USA 192)    
1 29601U 06052A   26163.93110592  .00000087  00000+0  00000+0 0  9992
2 29601  54.9353 214.1750 0085171  90.8136 270.2532  2.00557944143328
NAVSTAR 60 (USA 196)    
1 32260U 07047A   26164.23601785 -.00000040  00000+0  00000+0 0  9995
2 32260  54.0924  80.2285 0166626  87.3036 274.5961  2.00555341136737
COSMOS 2433 [GLONASS-M] 
1 32275U 07052A   26161.34602035 -.00000036  00000+0  00000+0 0  9990
2 32275  65.5811 316.1641 0002223 191.9747 168.0168  2.13104347144910
COSMOS 2432 [GLONASS-M] 
1 32276U 07052B   26162.35423378 -.00000041  00000+0  00000+0 0  9990
2 32276  65.5974 316.2581 0007764 332.8636  24.5023  2.13103380144959
NAVSTAR 61 (USA 199)    
1 32384U 07062A   26164.54248002 -.00000029  00000+0  00000+0 0  9999
2 32384  55.0347 274.2993 0035667 165.1238 183.4313  2.00559837135433
COSMOS 2434 [GLONASS-M] 
1 32393U 07065A   26164.06710712  .00000117  00000+0  00000+0 0  9998
2 32393  64.3199 192.0547 0001152 331.0720 206.3088  2.13101303143680
COSMOS 2436 [GLONASS-M] 
1 32395U 07065C   26164.25890233  .00000116  00000+0  00000+0 0  9997
2 32395  64.3263 192.1203 0017212 354.2143 102.6396  2.13100224143641
NAVSTAR 62 (USA 201)    
1 32711U 08012A   26164.14771647  .00000080  00000+0  00000+0 0  9997
2 32711  54.4968 150.0860 0211213 247.7974 109.9434  2.00572264133670
NAVSTAR 64 (USA 206)    
1 35752U 09043A   26163.38378272 -.00000064  00000+0  00000+0 0  9995
2 35752  56.2072  27.6401 0053783  83.0708  95.4600  2.00554404123260
COSMOS 2456 [GLONASS-M] 
1 36111U 09070A   26164.33194399 -.00000033  00000+0  00000+0 0  9993
2 36111  65.0089  71.1038 0004690 329.5299 209.1509  2.13103825128349
COSMOS 2457 [GLONASS-M] 
1 36112U 09070B   26164.15832506 -.00000033  00000+0  00000+0 0  9993
2 36112  64.9943  70.9539 0002619 125.5339  47.3970  2.13101263128346
NAVSTAR 65 (USA 213)    
1 36585U 10022A   26163.97037535  .00000093  00000+0  00000+0 0  9999
2 36585  54.2705 208.7319 0126334  66.1291 294.4342  2.00562166117506
BEIDOU-2 IGSO-3         
1 37384U 11013A   26161.71639865 -.00000195  00000+0  00000+0 0  9996
2 37384  62.3981  40.2143 0034353 184.2630  40.3873  1.00268972 55596
GSAT0101 (GALILEO-PFM)  
1 37846U 11060A   26163.74233043 -.00000071  00000+0  00000+0 0  9997
2 37846  56.9957 341.8816 0003117  51.3749 308.6629  1.70475562 91048
GSAT0102 (GALILEO-FM2)  
1 37847U 11060B   26158.40220003 -.00000063  00000+0  00000+0 0  9998
2 37847  57.0009 342.0270 0003434  13.7700 354.5257  1.70476015 90968
COSMOS 2476 [GLONASS-M] 
1 37867U 11064A   26164.36654497 -.00000031  00000+0  00000+0 0  9999
2 37867  65.2676  73.0007 0022731 238.9288 234.6258  2.13103919113685
COSMOS 2477 [GLONASS-M] 
1 37868U 11064B   26164.17359397 -.00000031  00000+0  00000+0 0  9990
2 37868  65.2740  73.0865 0019884 240.5145 265.3672  2.13103103113671
COSMOS 2475 [GLONASS-M] 
1 37869U 11064C   26164.21303852 -.00000031  00000+0  00000+0 0  9991
2 37869  65.2809  73.1067 0025589 253.3203 237.9576  2.13101955113681
